     3.03           N: GNSS NAV DATA    M: MIXED            RINEX VERSION / TYPE
ssrcrin-13.0.0x                         20190314 093800 UTC PGM / RUN BY / DATE 
GPSA   0.1118D-07  0.7451D-08 -0.5960D-07 -0.5960D-07       IONOSPHERIC CORR    
GPSB   0.9011D+05  0.0000D+00 -0.1966D+06 -0.6554D+05       IONOSPHERIC CORR    
GAL    3.5500E+01  1.4062E-01  5.0049E-03  0.0000E+00       IONOSPHERIC CORR    
                                                            END OF HEADER       
E24 2019 03 14 10 40 00 6.186086917296E-03-1.975308805413E-11 0.000000000000E+00
     0.000000000000E+00 1.365937500000E+02 2.588679257453E-09 8.330548147283E-01
     6.314367055893E-06 5.901902914047E-04 8.363276720047E-06 5.440618152618E+03
     3.840000000000E+05-2.048909664154E-08 2.224898986739E+00-7.078051567078E-08
     9.862553044865E-01 1.735312500000E+02 8.272293110898E-01-5.450941339301E-09
    -8.714648714384E-11 5.170000000000E+02 2.044000000000E+03
     3.120000000000E+00 0.000000000000E+00 4.307366907597E-08 4.819594323635E-08
     3.849950000000E+05
E24 2019 03 14 10 40 00 6.186081853230E-03-1.975308805413E-11 0.000000000000E+00
     0.000000000000E+00 1.365937500000E+02 2.588679257453E-09 8.330548147283E-01
     6.314367055893E-06 5.901902914047E-04 8.363276720047E-06 5.440618152618E+03
     3.840000000000E+05-2.048909664154E-08 2.224898986739E+00-7.078051567078E-08
     9.862553044865E-01 1.735312500000E+02 8.272293110898E-01-5.450941339301E-09
    -8.714648714384E-11 2.580000000000E+02 2.044000000000E+03
     3.120000000000E+00 0.000000000000E+00 4.307366907597E-08 0.000000000000E+00
     3.850400000000E+05
E02 2019 03 14 10 40 00 5.142856389284E-05 1.591615728103E-12 0.000000000000E+00
     0.000000000000E+00 9.884375000000E+01 2.736542559410E-09-4.913812959805E-01
     4.610046744347E-06 2.831129822880E-04 7.752329111099E-06 5.440613456726E+03
     3.840000000000E+05 1.862645149231E-08 2.221510807025E+00-9.313225746155E-09
     9.886953099396E-01 1.834687500000E+02 5.827242799367E-01-5.483442693112E-09
    -8.357490980188E-11 5.170000000000E+02 2.044000000000E+03
     3.120000000000E+00 0.000000000000E+00-6.053596735001E-09-7.450580596924E-09
     3.850550000000E+05
E02 2019 03 14 10 40 00 5.143001908436E-05 1.591615728103E-12 0.000000000000E+00
     0.000000000000E+00 9.884375000000E+01 2.736542559410E-09-4.913812959805E-01
     4.610046744347E-06 2.831129822880E-04 7.752329111099E-06 5.440613456726E+03
     3.840000000000E+05 1.862645149231E-08 2.221510807025E+00-9.313225746155E-09
     9.886953099396E-01 1.834687500000E+02 5.827242799367E-01-5.483442693112E-09
    -8.357490980188E-11 2.580000000000E+02 2.044000000000E+03
     3.120000000000E+00 0.000000000000E+00-6.053596735001E-09 0.000000000000E+00
     3.850900000000E+05
R05 2019 03 14 11 15 00 2.402998507023E-05 9.094947017729E-13 3.852000000000E+05
     1.659255810547E+04 2.434458732605E+00-0.000000000000E+00 0.000000000000E+00
    -7.728242187500E+03-2.391052246094E-02 0.000000000000E+00 1.000000000000E+00
     1.776625048828E+04-2.287084579468E+00-2.793967723846E-09 0.000000000000E+00
R15 2019 03 14 11 15 00 1.006182283163E-04 0.000000000000E+00 3.852000000000E+05
     1.543025830078E+04-1.465757369995E+00-0.000000000000E+00 0.000000000000E+00
    -7.718643554688E+03 2.115134239197E+00 0.000000000000E+00 0.000000000000E+00
     1.879981298828E+04 2.073673248291E+00-2.793967723846E-09 0.000000000000E+00
R04 2019 03 14 11 15 00 2.985689789057E-04 9.094947017729E-13 3.852000000000E+05
     2.532068750000E+04 4.136676788330E-01-0.000000000000E+00 0.000000000000E+00
    -4.726625976562E+02-1.428127288818E-01-0.000000000000E+00 6.000000000000E+00
     2.995505371094E+03-3.540099143982E+00-9.313225746155E-10 0.000000000000E+00
R14 2019 03 14 11 15 00 3.688782453537E-05 0.000000000000E+00 3.852000000000E+05
     7.060905273438E+03-1.652678489685E+00-9.313225746155E-10 0.000000000000E+00
     9.102759765625E+03 2.640631675720E+00 2.793967723846E-09-7.000000000000E+00
     2.276342919922E+04-5.441522598267E-01-1.862645149231E-09 0.000000000000E+00
R16 2019 03 14 11 15 00 1.076795160770E-05-9.094947017729E-13 3.852000000000E+05
     1.464799951172E+04-3.970327377319E-01 0.000000000000E+00 0.000000000000E+00
    -2.043548046875E+04 3.865089416504E-01-1.862645149231E-09-1.000000000000E+00
     3.879107910156E+03 3.521288871765E+00-1.862645149231E-09 0.000000000000E+00
R06 2019 03 14 11 15 00 1.506796106696E-04 0.000000000000E+00 3.852000000000E+05
    -3.668150878906E+03 3.106418609619E+00-0.000000000000E+00 0.000000000000E+00
    -1.105095214844E+04 8.912372589111E-02 0.000000000000E+00-4.000000000000E+00
     2.268853173828E+04 5.430002212524E-01-2.793967723846E-09 0.000000000000E+00
R23 2019 03 14 11 15 00 2.152351662517E-04 1.818989403546E-12 3.852000000000E+05
    -2.935705078125E+03-1.204031944275E+00-9.313225746155E-10 0.000000000000E+00
     1.466365185547E+04-2.567010879517E+00 3.725290298462E-09 3.000000000000E+00
     2.066020898438E+04 1.651435852051E+00-9.313225746155E-10 0.000000000000E+00
R03 2019 03 14 11 15 00-7.667578756809E-06-0.000000000000E+00 3.852000000000E+05
     1.961027050781E+04-1.969386100769E+00 0.000000000000E+00 0.000000000000E+00
     7.606492675781E+03-1.969432830811E-01-9.313225746155E-10 5.000000000000E+00
    -1.435816210938E+04-2.790221214294E+00 9.313225746155E-10 0.000000000000E+00
R24 2019 03 14 11 15 00-1.781899482012E-04-0.000000000000E+00 3.852000000000E+05
     7.202619140625E+03-3.706264495850E-01-9.313225746155E-10 0.000000000000E+00
     2.277162255859E+04-1.187335014343E+00 2.793967723846E-09 2.000000000000E+00
     8.908998535156E+03 3.329257011414E+00 9.313225746155E-10 0.000000000000E+00
R13 2019 03 14 11 15 00-2.121273428202E-05-0.000000000000E+00 3.852000000000E+05
    -5.108437500000E+03-8.863334655762E-01-9.313225746155E-10 0.000000000000E+00
     2.074746240234E+04 1.696853637695E+00 3.725290298462E-09-2.000000000000E+00
     1.391000537109E+04-2.851509094238E+00 9.313225746155E-10 0.000000000000E+00
C21 2019 03 14 11 00 00 4.469475243241E-04 4.173550394171E-12 0.000000000000E+00
     1.000000000000E+00-1.104687500000E+01 4.150530029093E-09-2.949143958929E+00
    -4.712492227554E-07 7.168535375968E-04 7.614027708769E-06 5.282618333817E+03
     3.852000000000E+05-6.798654794693E-08-2.706716250968E-01 4.842877388000E-08
     9.610650620689E-01 2.072031250000E+02-1.067580484372E+00-6.863857335780E-09
     2.664396697103E-10 0.000000000000E+00 6.880000000000E+02
     2.000000000000E+00 0.000000000000E+00 1.060000000000E-08 1.060000000000E-08
     3.852180000000E+05 1.000000000000E+00
C36 2019 03 14 11 00 00-1.929106656462E-04-2.588507186374E-11 0.000000000000E+00
     1.000000000000E+00 8.364062500000E+01 3.681581924093E-09-2.662405950134E+00
     4.109460860491E-06 5.357660120353E-04 9.849667549133E-06 5.282631669998E+03
     3.852000000000E+05-3.399327397346E-08 1.839977969828E+00-2.328306436539E-08
     9.580944386734E-01 1.586875000000E+02-1.876520615999E+00-6.751709807243E-09
    -2.442958901901E-10 0.000000000000E+00 6.880000000000E+02
     2.000000000000E+00 0.000000000000E+00-2.260000000000E-08-2.260000000000E-08
     3.852180000000E+05 1.000000000000E+00
C22 2019 03 14 11 00 00 3.502608742565E-04-1.261213355974E-11 0.000000000000E+00
     1.000000000000E+00-7.687500000000E+00 4.143744032143E-09-2.759985650835E+00
    -3.138557076454E-07 6.149091059342E-04 7.815659046173E-06 5.282617357254E+03
     3.852000000000E+05 1.955777406693E-08-2.707619032344E-01-2.095475792885E-08
     9.610742257877E-01 2.041250000000E+02-4.746582156713E-01-6.768496220750E-09
     2.528676758108E-10 0.000000000000E+00 6.880000000000E+02
     2.000000000000E+00 0.000000000000E+00 1.240000000000E-08 1.240000000000E-08
     3.852180000000E+05 1.000000000000E+00
C14 2019 03 14 11 00 00 7.643885910511E-04-3.407496507180E-11 9.486769009248E-19
     1.000000000000E+01-9.515625000000E+00 4.186602960246E-09-2.713640501173E+00
    -4.763714969158E-07 2.081814222038E-03 7.588416337967E-06 5.282614345551E+03
     3.852000000000E+05 7.590278983116E-08-2.707126921331E-01 4.284083843231E-08
     9.590653203488E-01 2.057031250000E+02-2.040376278365E+00-6.916002364973E-09
     2.289381076197E-10 0.000000000000E+00 6.880000000000E+02
     2.000000000000E+00 0.000000000000E+00 5.700000000000E-09 1.300000000000E-09
     3.852180000000E+05 9.000000000000E+00
C26 2019 03 14 11 00 00 1.675316598266E-04 1.425437545777E-11 0.000000000000E+00
     1.000000000000E+00 6.712500000000E+01 3.859446475723E-09-1.220710720416E-01
     3.278721123934E-06 5.856170319021E-04 8.646864444017E-06 5.282625604630E+03
     3.852000000000E+05 1.909211277962E-08 1.817429298105E+00 8.381903171539E-09
     9.578306394336E-01 1.814531250000E+02 2.779102359168E-01-6.849213868678E-09
    -2.417957860507E-10 0.000000000000E+00 6.880000000000E+02
     2.000000000000E+00 0.000000000000E+00-5.800000000000E-09-5.800000000000E-09
     3.852180000000E+05 1.000000000000E+00
C30 2019 03 14 11 00 00 8.777924813330E-05 6.815881192779E-12 0.000000000000E+00
     1.000000000000E+00-8.746875000000E+01 3.735512741957E-09 7.712546626296E-01
    -4.200730472803E-06 5.112815415487E-04 4.750210791826E-06 5.282615873337E+03
     3.852000000000E+05 3.678724169731E-08-2.376025171306E+00 4.936009645462E-08
     9.630285453644E-01 2.659062500000E+02-3.291308482724E-01-7.028507051245E-09
     2.500104139373E-12 0.000000000000E+00 6.880000000000E+02
     2.000000000000E+00 0.000000000000E+00-1.060000000000E-08-1.060000000000E-08
     3.852180000000E+05 1.000000000000E+00
